sat01316
1 01316U 65027C   20046.79947799 -.00000339  00000-0 -87424-3 0  9999
2 01316  90.2732 331.5543 0037992  43.4300 316.9815 13.18829541613762
